{"type": "FeatureCollection", "features": [ {"type": "Feature", "properties": {"norad_id": 67067, "name": "HULIANWANG DIGUI 16J", "group": "last-30-days", "lat": 24.44888141431502, "lon": 21.771624274569927, "alt_km": 805.3812443073712, "timestamp": "2025-12-15T19:00:44.080099+00:00", "meta": {"OBJECT_NAME": "HULIANWANG DIGUI 16J", "OBJECT_ID": "2025-295J", "EPOCH": "2025-12-12T05:06:18.555264", "MEAN_MOTION": 14.26361638, "ECCENTRICITY": 0.00104901, "INCLINATION": 50.0044, "RA_OF_ASC_NODE": 14.4694, "ARG_OF_PERICENTER": 253.0387, "MEAN_ANOMALY": 106.9378, "EPHEMERIS_TYPE": 0, "CLASSIFICATION_TYPE": "U", "NORAD_CAT_ID": 67067, "ELEMENT_SET_NO": 999, "REV_AT_EPOCH": 4, "BSTAR": 6.475965e-06, "MEAN_MOTION_DOT": -1.45e-06, "MEAN_MOTION_DDOT": 0}, "tle": {"line1": "1 67067U 25295J   25346.21271476 -.00000145  00000+0  64760-5 0  9997", "line2": "2 67067  50.0044  14.4694 0010490 253.0387 106.9378 14.26361638    49"}}, "geometry": {"type": "Point", "coordinates": [21.771624274569927, 24.44888141431502]}}, {"type": "Feature", "properties": {"norad_id": 67070, "name": "2025-296B", "group": "last-30-days", "lat": -14.323638234460539, "lon": 67.27928448157559, "alt_km": 511.0689919081142, "timestamp": "2025-12-15T19:00:44.080111+00:00", "meta": {"OBJECT_NAME": "2025-296B", "OBJECT_ID": "2025-296B", "EPOCH": "2025-12-15T14:22:08.198400", "MEAN_MOTION": 15.17174125, "ECCENTRICITY": 0.0016004, "INCLINATION": 41.3531, "RA_OF_ASC_NODE": 85.2597, "ARG_OF_PERICENTER": 42.3814, "MEAN_ANOMALY": 317.8241, "EPHEMERIS_TYPE": 0, "CLASSIFICATION_TYPE": "U", "NORAD_CAT_ID": 67070, "ELEMENT_SET_NO": 999, "REV_AT_EPOCH": 38, "BSTAR": 8.1549e-05, "MEAN_MOTION_DOT": 1.448e-05, "MEAN_MOTION_DDOT": 0}, "tle": {"line1": "1 67070U 25296B   25349.59870600  .00001448  00000+0  81549-4 0  9999", "line2": "2 67070  41.3531  85.2597 0016004  42.3814 317.8241 15.17174125   389"}}, "geometry": {"type": "Point", "coordinates": [67.27928448157559, -14.323638234460539]}}, {"type": "Feature", "properties": {"norad_id": 67071, "name": "KZ-11 R/B", "group": "last-30-days", "lat": -7.784048129725639, "lon": 76.65858850209285, "alt_km": 150.41827651298354, "timestamp": "2025-12-15T19:00:44.080121+00:00", "meta": {"OBJECT_NAME": "KZ-11 R/B", "OBJECT_ID": "2025-296C", "EPOCH": "2025-12-13T03:57:12.269376", "MEAN_MOTION": 14.41614344, "ECCENTRICITY": 0.08603054, "INCLINATION": 41.3405, "RA_OF_ASC_NODE": 99.1629, "ARG_OF_PERICENTER": 320.0027, "MEAN_ANOMALY": 34.035, "EPHEMERIS_TYPE": 0, "CLASSIFICATION_TYPE": "U", "NORAD_CAT_ID": 67071, "ELEMENT_SET_NO": 999, "REV_AT_EPOCH": 2, "BSTAR": 0.00012972566, "MEAN_MOTION_DOT": 0.00801494, "MEAN_MOTION_DDOT": 4.646094e-06}, "tle": {"line1": "1 67071U 25296C   25347.16472534  .00801494  46461-5  12973-3 0  9995", "line2": "2 67071  41.3405  99.1629 0860305 320.0027  34.0350 14.41614344    21"}}, "geometry": {"type": "Point", "coordinates": [76.65858850209285, -7.784048129725639]}}, {"type": "Feature", "properties": {"norad_id": 67072, "name": "ELECTRON R/B", "group": "last-30-days", "lat": -48.443457099248384, "lon": -51.106666723150944, "alt_km": 187.4845217994889, "timestamp": "2025-12-15T19:00:44.080134+00:00", "meta": {"OBJECT_NAME": "ELECTRON R/B", "OBJECT_ID": "2025-297A", "EPOCH": "2025-12-14T22:11:05.053056", "MEAN_MOTION": 15.71495264, "ECCENTRICITY": 0.02597271, "INCLINATION": 97.4828, "RA_OF_ASC_NODE": 136.487, "ARG_OF_PERICENTER": 224.2905, "MEAN_ANOMALY": 133.7317, "EPHEMERIS_TYPE": 0, "CLASSIFICATION_TYPE": "U", "NORAD_CAT_ID": 67072, "ELEMENT_SET_NO": 999, "REV_AT_EPOCH": 13, "BSTAR": 0.0012785881, "MEAN_MOTION_DOT": 0.01560771, "MEAN_MOTION_DDOT": 2.254797e-06}, "tle": {"line1": "1 67072U 25297A   25348.92436404  .01560771  22548-5  12786-2 0  9990", "line2": "2 67072  97.4828 136.4870 0259727 224.2905 133.7317 15.71495264   130"}}, "geometry": {"type": "Point", "coordinates": [-51.106666723150944, -48.443457099248384]}}, {"type": "Feature", "properties": {"norad_id": 67073, "name": "RAISE-4", "group": "last-30-days", "lat": -31.392609973330327, "lon": -47.3426255006009, "alt_km": 552.1700505809677, "timestamp": "2025-12-15T19:00:44.080146+00:00", "meta": {"OBJECT_NAME": "RAISE-4", "OBJECT_ID": "2025-297B", "EPOCH": "2025-12-14T22:57:15.329952", "MEAN_MOTION": 15.07143687, "ECCENTRICITY": 0.00119161, "INCLINATION": 97.4849, "RA_OF_ASC_NODE": 136.4463, "ARG_OF_PERICENTER": 312.6062, "MEAN_ANOMALY": 47.416, "EPHEMERIS_TYPE": 0, "CLASSIFICATION_TYPE": "U", "NORAD_CAT_ID": 67073, "ELEMENT_SET_NO": 999, "REV_AT_EPOCH": 12, "BSTAR": 0.00041310376, "MEAN_MOTION_DOT": 6.159e-05, "MEAN_MOTION_DDOT": 0}, "tle": {"line1": "1 67073U 25297B   25348.95642743  .00006159  00000+0  41310-3 0  9992", "line2": "2 67073  97.4849 136.4463 0011916 312.6062  47.4160 15.07143687   128"}}, "geometry": {"type": "Point", "coordinates": [-47.3426255006009, -31.392609973330327]}}, {"type": "Feature", "properties": {"norad_id": 67074, "name": "ELECTRON KICK STAGE R/B", "group": "last-30-days", "lat": 56.65340126014594, "lon": -31.091373413956045, "alt_km": 498.1427149163819, "timestamp": "2025-12-15T19:00:44.080156+00:00", "meta": {"OBJECT_NAME": "ELECTRON KICK STAGE R/B", "OBJECT_ID": "2025-297C", "EPOCH": "2025-12-14T22:22:53.137344", "MEAN_MOTION": 15.53992131, "ECCENTRICITY": 0.02085624, "INCLINATION": 97.482, "RA_OF_ASC_NODE": 136.4892, "ARG_OF_PERICENTER": 261.54, "MEAN_ANOMALY": 96.2167, "EPHEMERIS_TYPE": 0, "CLASSIFICATION_TYPE": "U", "NORAD_CAT_ID": 67074, "ELEMENT_SET_NO": 999, "REV_AT_EPOCH": 12, "BSTAR": 0.0012691251, "MEAN_MOTION_DOT": 0.00219816, "MEAN_MOTION_DDOT": 1.4512242e-05}, "tle": {"line1": "1 67074U 25297C   25348.93255946  .00219816  14512-4  12691-2 0  9999", "line2": "2 67074  97.4820 136.4892 0208562 261.5400  96.2167 15.53992131   123"}}, "geometry": {"type": "Point", "coordinates": [-31.091373413956045, 56.65340126014594]}}]}